#dP2023 10 15  0  0  0.00000000      96 __u+U IGS20 FIT  IAC
## 2284      0.00000000   900.00000000 60232 0.0000000000000
+  118   C06C07C08C09C10C11C12C13C14C16C19C20C21C22C23C24C25
+        C26C27C28C29C30C32C33C34C35C36C37C38C39C40C41C42C43
+        C44C45C46E02E03E04E05E07E08E09E10E11E12E13E14E15E19
+        E21E24E25E26E27E30E31E33E34E36G01G02G03G04G05G06G07
+        G08G09G10G11G12G13G14G15G16G17G18G19G20G22G23G24G25
+        G26G27G28G29G30G31G32J02J03J04R01R02R03R04R05R07R08
+        R09R11R12R13R14R15R16R17R18R19R20R21R22R24R25R26  0
++         7  7  8  7  7  7  7  7  7  7  5  6  6  6  6  6  6
++         6  6  6  6  6  6  6  6  6  6  6  7  6  6  6  6  6
++         6  6  6  5  4  4  4  5  5  4  4  4  4  4  5  4  5
++         4  4  4  4  5  5  4  4  4  4  4  4  4  4  3  4  4
++         4  3  4  4  4  3  4  4  4  4  4  4  3  4  4  4  4
++         4  4  4  4  4  4  4  9  9 10 10  7  7  7  7  7  7
++         7  7  7  8  7  7  7  7  7  8 10  7  7  7  8  9  0
%c M  cc GPS ccc cccc cccc cccc cccc ccccc ccccc ccccc ccccc
%c cc cc ccc ccc cccc cccc cccc cccc ccccc ccccc ccccc ccccc
%f  1.2500000  1.025000000  0.00000000000  0.000000000000000
%f  0.0000000  0.000000000  0.00000000000  0.000000000000000
%i    0    0    0    0      0      0      0      0         0
%i    0    0    0    0      0      0      0      0         0
/* INFORMATION & ANALYSIS CENTER (IAC)            FINAL DATA
/* S/V CLOCKS ARE ALIGNED TO GNSS TIME                      
/* G:C1WC2W R:C1PC2P E:C1XC5X C:C2IC6I J:C1CC2S             
/* PCV:IGS20_2280 OL/AL:FES2004  NONE     YN ORB:CoN CLK:CoN
*  2023 10 15  5  0  0.00000000
PC06  -1922.300110  38340.008300  17775.982158     55.602361
PC07 -12198.546112  25691.583006 -31069.235563   -160.341015
PC08 -19402.334301  34413.458755  14401.907520    295.878440
PC09   1725.920436  40934.777444  11592.970160     39.973788
PC10  -3000.582246  27098.508153 -31829.802936     18.486494
PC11  19487.963874  11095.203730  16665.927707    204.230391
PC12  14473.573084  23847.618057   -232.667992    897.167132
PC13 -13209.671618  34801.065547  19659.513012    367.747160
PC14  27048.686040   2781.532023   6161.590920    589.900077
PC16  -5797.379868  35358.308727  22719.213461   -126.502976
PC19 -27502.818919   3581.455233   3179.543875   -971.989738
PC20 -23427.088953  -7695.106221 -13087.759910    202.370817
PC21   4698.373136  15313.904403  22853.200497   -969.441992
PC22 -16017.489009  13394.432493  18511.113839   -265.956092
PC23  15427.839264 -22789.859186  -4645.170536   -844.436139
PC24  11728.812490  12212.992209 -22189.399723    495.341836
PC25  18985.342747  -8763.295447 -18500.674644    233.171415
PC26  -1311.138374  24545.676675 -13192.493411   -191.893100
PC27  -8862.877749 -25065.254458   8457.082362    213.641186
PC28   5234.059513 -18340.293552  20381.259782    160.755480
PC29 -18255.320725   -429.237730 -21105.430883    187.907356
PC30 -19436.169195 -18346.464174  -8002.292322     -6.522625
PC32  -4702.128596 -15300.219046 -22854.324691   -529.884742
PC33  27488.589650  -3679.825573  -3053.476979   -954.440906
PC34  19806.755580  17339.470828   9276.287702    281.377590
PC35  -4552.198680  18613.846806 -20306.020143    525.009180
PC36 -19092.810288   7404.128525  18974.848972   -179.257982
PC37   2515.403453 -24813.616178  12559.224051   -853.931303
PC38 -23354.317323  34483.483773   5957.671594    111.228562
PC39  -7350.960235  32180.159776  26415.251572     -5.234151
PC40 -17279.354592  18877.059477 -33536.480968    -40.168448
PC41  16674.032153 -13215.277553 -18011.382118   -873.031870
PC42  22384.411442   8560.752456  14313.832877   -521.674775
PC43  18689.053397   1340.544709  20678.335890     44.024594
PC44   9608.008975  24758.006490  -8622.567617    262.050535
PC45 -15172.948012  23034.690019   4138.146749    -36.180713
PC46 -12317.373238 -11066.457245  22464.418884    -91.946882
PE02  -5792.595539  20000.224294 -21029.825051     70.333425
PE03   6252.816205  20251.271046  20648.069878    -65.050181
PE04 -23000.898529 -17740.096874  -5693.529817   -234.585459
PE05 -14080.259036  11012.320265  23588.468702     27.570417
PE07  26392.650099   5054.668368 -12407.249060    -82.082806
PE08  22744.475471  17893.940622   6189.796653   -161.589088
PE09 -26404.952635  -5221.916069  12322.951897   -191.856309
PE10 -14831.432317 -11332.091997 -22982.253857   -571.250748
PE11 -16056.766230    972.603028 -24855.733020   3090.687915
PE12 -11548.163674 -20669.958074 -17761.903773   -737.037428
PE13  15988.243776   -134.122324  24915.118428    -19.677637
PE14  19017.737346  -1377.830076  13864.011190    369.001338
PE15  11322.722139  21041.636404  17474.368581    -61.294698
PE19  -3593.077572 -19590.542852 -21896.191078  -1422.771069
PE21  22169.600438 -18347.446338   6946.936182   -558.489652
PE24 -26378.024698   5350.607133  12283.665476   -376.348259
PE25 -22395.521019  18190.955154  -6585.644165     -3.264895
PE26  11054.022567 -21488.690977  17108.091279    251.622351
PE27  26482.447752  -5911.139926 -11836.948937   -174.843295
PE30  14805.109898  10236.699921 -23506.391388   -580.766244
PE31 -15134.378657  -9885.021978  23449.508745     -7.644675
PE33    302.826526 -29599.126662    707.126037      0.392074
PE34    142.356746  29589.804229    -95.191623    -72.454187
PE36 -11235.910516  20913.290826 -17673.757174   -130.081433
PG01  13345.053300 -10576.843397  19939.832635    163.723704
PG02  14982.523153  -3706.428351  22108.835524   -541.875850
PG03  23401.087039 -12364.923782   1182.921666    -78.110977
PG04  17965.407589  -4351.300213 -19110.667740    184.786200
PG05 -22257.531732   2215.869865 -14578.241944   -146.552186
PG06  -6147.580560 -23747.123540 -10001.147868    530.264939
PG07   5871.099410 -24231.073301  -7952.972331     40.091976
PG08  23621.991413   3232.882819  12045.738225   -147.177945
PG09   8880.009611 -12594.300313 -21724.420875    -32.069231
PG10    288.719246  16171.800898  21183.277300    -57.388175
PG11 -12334.511414 -13938.899781 -18949.571239   -415.644260
PG12 -24591.441132   9251.252340   3337.625221   -436.001130
PG13 -22576.551286 -12966.611155   5603.132193    584.137654
PG14   3704.269640 -17746.723817  19377.334819    214.357357
PG15 -23480.245768    203.809125  12145.440756     87.223977
PG16  19786.373664   4446.148222 -17696.852020   -438.908620
PG17  -6412.828347 -18968.395266  17825.673200    723.822293
PG18  -5129.693170  25098.033420  -6635.910187   -449.160694
PG19 -14468.215650 -19702.870665  10603.677152    385.128583
PG20 -14845.507006  -7014.660601 -20798.639815    406.758136
PG22  -3028.214471 -15374.925902  21926.517316    102.687071
PG23 -12485.600263  18693.794103  14009.416094     82.879325
PG24 -14924.287898   5707.441287  20778.600726   -346.369527
PG25 -18127.788620  17501.893285  -8268.140268    472.768701
PG26  11842.915135  11009.021986 -21232.270147    223.110943
PG27  23323.649444  13160.022932    441.367114    -55.296257
PG28   6234.023251  24568.780060  -7961.385662    -25.804220
PG29  -9740.270117  11400.158486 -21970.630378   -610.054553
PG30   -854.755029 -26361.923012   1588.712632   -478.470369
PG31  10817.179964  18165.098815 -16009.082556   -224.662359
PG32  11562.728637  18806.901994  15093.830633   -572.798020
PJ02 -35507.662112  20362.424599  -5353.458874     -5.710075
PJ03 -20093.185056  26128.504432 -21668.479648     -5.142071
PJ04 -28329.793579  28516.616994  18756.398607     71.213959
PR01  19752.776049  -5255.163141 -15263.144134     67.705206
PR02   2716.431593 -10510.355792 -23047.553516    -22.384285
PR03 -15772.370637 -10245.029117 -17158.623403     87.101243
PR04 -25023.835514  -4456.942247  -1996.300407    206.901079
PR05 -20806.206435   3710.157617  14263.724573    120.641484
PR07  16550.736943  10115.856173  16630.235718     66.878779
PR08  25101.685346   4264.015577   1912.022491    -72.945123
PR09  -9571.315616  21553.423656  -9803.293368    147.709753
PR11  13585.056875  -1128.894634 -21544.776143   -196.823792
PR12  17472.962923 -16856.083341  -7824.415784     32.363303
PR13  11225.472422 -21511.808525   7861.019812    -40.213450
PR14  -3095.368555 -13318.586753  21543.073235     25.407782
PR15 -14366.287140   2245.510470  20980.006080     85.373848
PR16 -17381.774966  16806.579364   8193.034705     19.664221
PR17 -11327.710722 -22431.212571  -4518.738851     25.886216
PR18 -13382.917588 -11099.825588 -18627.980736    106.910128
PR19  -9539.533711   4096.217370 -23295.521509   -250.948989
PR20   1352.856413  21600.288534 -13513.899806   -101.824759
PR21  11418.209427  22141.474496   5399.627118    -45.656516
PR22  13320.812727  10463.250663  19103.547290     88.747713
PR24  -2244.794624 -21895.764616  12935.104978    -28.256459
PR25  10398.198339  22835.680788   4523.041239     27.983481
PR26  25021.907957   4306.098394   2370.769464    -20.598637
EOF
